SL-14 R/B               
1 16792U 86046B   26060.65734450  .00000534  00000+0  58724-4 0  9998
2 16792  82.4783  87.7737 0021593 253.4957 106.3886 14.85581121125212
SL-14 R/B               
1 16882U 86055B   26060.94352803  .00000506  00000+0  55479-4 0  9991
2 16882  82.5215 133.9543 0018867   2.6189 170.4390 14.85634078118217
AJISAI (EGS)            
1 16908U 86061A   26060.92181897 -.00000087  00000+0  75191-4 0  9996
2 16908  50.0081 117.2347 0011243 267.0063 144.8367 12.44515485467032
COSMOS 1812             
1 17295U 87003A   26061.01343874  .01403358 -12034-5  80874-3 0  9997
2 17295  82.4732 204.4146 0006784 288.0935  71.9614 16.18918330143245
SL-14 R/B               
1 17567U 87024B   26060.82834019  .00000506  00000+0  54886-4 0  9991
2 17567  82.5254 100.1544 0016706 288.3695  71.5705 14.86123236 86960
COSMOS 1833             
1 17589U 87027A   26060.93184234 -.00000133  00000+0 -45423-4 0  9992
2 17589  70.9232 342.3223 0024601 225.2312 134.6808 14.13056348  9222
SL-16 R/B               
1 17590U 87027B   26060.92799154 -.00000173  00000+0 -61997-4 0  9994
2 17590  71.0021 292.8520 0003792 158.9432 201.1849 14.17166803 14249
SL-14 R/B               
1 17912U 87038B   26060.95399708  .00000503  00000+0  55511-4 0  9998
2 17912  82.5017 304.0952 0019006 185.7294 174.3708 14.85361067 78084
COSMOS 1844             
1 17973U 87041A   26060.97524953 -.00000051  00000+0 -12778-5 0  9992
2 17973  70.8992  50.4468 0029600  29.5979 330.6811 14.14553217  2499
SL-14 R/B               
1 18153U 87055B   26060.86495068  .00000659  00000+0  73060-4 0  9992
2 18153  82.5026 356.4036 0021771  42.7271 317.5633 14.85617906 68774
COSMOS 1867             
1 18187U 87060A   26060.96608129 -.00000025  00000+0  28320-4 0  9997
2 18187  65.0120 328.3347 0014385 278.1681  81.7771 14.31501520 18838
SL-14 R/B               
1 18749U 88001B   26060.85969578  .00000675  00000+0  75308-4 0  9991
2 18749  82.5139 202.7230 0016590 263.7861  96.1466 14.85516071 40867
