CCSDS_OMM_VERS = 2.0
CREATION_DATE  = 
ORIGINATOR     = 

OBJECT_NAME    = SL-14 R/B
OBJECT_ID      = 1986-046B
CENTER_NAME    = EARTH
REF_FRAME      = TEME
TIME_SYSTEM    = UTC
MEAN_ELEMENT_THEORY = SGP/SGP4

EPOCH          = 2026-03-01T15:46:34.564800
MEAN_MOTION    = 14.85581121
ECCENTRICITY   = .00215939
INCLINATION    = 82.4783
RA_OF_ASC_NODE = 87.7737
ARG_OF_PERICENTER = 253.4957
MEAN_ANOMALY   = 106.3886

EPHEMERIS_TYPE = 0
CLASSIFICATION_TYPE = U
NORAD_CAT_ID   = 16792
ELEMENT_SET_NO = 999
REV_AT_EPOCH   = 12521
BSTAR          = .58723878E-4
MEAN_MOTION_DOT = .534E-5
MEAN_MOTION_DDOT = 0

CCSDS_OMM_VERS = 2.0
CREATION_DATE  = 
ORIGINATOR     = 

OBJECT_NAME    = SL-14 R/B
OBJECT_ID      = 1986-055B
CENTER_NAME    = EARTH
REF_FRAME      = TEME
TIME_SYSTEM    = UTC
MEAN_ELEMENT_THEORY = SGP/SGP4

EPOCH          = 2026-03-01T22:38:40.821792
MEAN_MOTION    = 14.85634078
ECCENTRICITY   = .00188678
INCLINATION    = 82.5215
RA_OF_ASC_NODE = 133.9543
ARG_OF_PERICENTER = 2.6189
MEAN_ANOMALY   = 170.4390

EPHEMERIS_TYPE = 0
CLASSIFICATION_TYPE = U
NORAD_CAT_ID   = 16882
ELEMENT_SET_NO = 999
REV_AT_EPOCH   = 11821
BSTAR          = .5547948E-4
MEAN_MOTION_DOT = .506E-5
MEAN_MOTION_DDOT = 0

CCSDS_OMM_VERS = 2.0
CREATION_DATE  = 
ORIGINATOR     = 

OBJECT_NAME    = AJISAI (EGS)
OBJECT_ID      = 1986-061A
CENTER_NAME    = EARTH
REF_FRAME      = TEME
TIME_SYSTEM    = UTC
MEAN_ELEMENT_THEORY = SGP/SGP4

EPOCH          = 2026-03-01T22:07:25.159008
MEAN_MOTION    = 12.44515485
ECCENTRICITY   = .00112436
INCLINATION    = 50.0081
RA_OF_ASC_NODE = 117.2347
ARG_OF_PERICENTER = 267.0063
MEAN_ANOMALY   = 144.8367

EPHEMERIS_TYPE = 0
CLASSIFICATION_TYPE = U
NORAD_CAT_ID   = 16908
ELEMENT_SET_NO = 999
REV_AT_EPOCH   = 46703
BSTAR          = .75190902E-4
MEAN_MOTION_DOT = -.87E-6
MEAN_MOTION_DDOT = 0

CCSDS_OMM_VERS = 2.0
CREATION_DATE  = 
ORIGINATOR     = 

OBJECT_NAME    = COSMOS 1812
OBJECT_ID      = 1987-003A
CENTER_NAME    = EARTH
REF_FRAME      = TEME
TIME_SYSTEM    = UTC
MEAN_ELEMENT_THEORY = SGP/SGP4

EPOCH          = 2026-03-02T00:19:21.107136
MEAN_MOTION    = 16.18918330
ECCENTRICITY   = .0006784
INCLINATION    = 82.4732
RA_OF_ASC_NODE = 204.4146
ARG_OF_PERICENTER = 288.0935
MEAN_ANOMALY   = 71.9614

EPHEMERIS_TYPE = 0
CLASSIFICATION_TYPE = U
NORAD_CAT_ID   = 17295
ELEMENT_SET_NO = 999
REV_AT_EPOCH   = 14324
BSTAR          = .80874E-3
MEAN_MOTION_DOT = .1403358E-1
MEAN_MOTION_DDOT = -.12034E-5

CCSDS_OMM_VERS = 2.0
CREATION_DATE  = 
ORIGINATOR     = 

OBJECT_NAME    = SL-14 R/B
OBJECT_ID      = 1987-024B
CENTER_NAME    = EARTH
REF_FRAME      = TEME
TIME_SYSTEM    = UTC
MEAN_ELEMENT_THEORY = SGP/SGP4

EPOCH          = 2026-03-01T19:52:48.592416
MEAN_MOTION    = 14.86123236
ECCENTRICITY   = .00167068
INCLINATION    = 82.5254
RA_OF_ASC_NODE = 100.1544
ARG_OF_PERICENTER = 288.3695
MEAN_ANOMALY   = 71.5705

EPHEMERIS_TYPE = 0
CLASSIFICATION_TYPE = U
NORAD_CAT_ID   = 17567
ELEMENT_SET_NO = 999
REV_AT_EPOCH   = 8696
BSTAR          = .54885556E-4
MEAN_MOTION_DOT = .506E-5
MEAN_MOTION_DDOT = 0

CCSDS_OMM_VERS = 2.0
CREATION_DATE  = 
ORIGINATOR     = 

OBJECT_NAME    = COSMOS 1833
OBJECT_ID      = 1987-027A
CENTER_NAME    = EARTH
REF_FRAME      = TEME
TIME_SYSTEM    = UTC
MEAN_ELEMENT_THEORY = SGP/SGP4

EPOCH          = 2026-03-01T22:21:51.178176
MEAN_MOTION    = 14.13056348
ECCENTRICITY   = .00246011
INCLINATION    = 70.9232
RA_OF_ASC_NODE = 342.3223
ARG_OF_PERICENTER = 225.2312
MEAN_ANOMALY   = 134.6808

EPHEMERIS_TYPE = 0
CLASSIFICATION_TYPE = U
NORAD_CAT_ID   = 17589
ELEMENT_SET_NO = 999
REV_AT_EPOCH   = 922
BSTAR          = -.45423104E-4
MEAN_MOTION_DOT = -.133E-5
MEAN_MOTION_DDOT = 0

CCSDS_OMM_VERS = 2.0
CREATION_DATE  = 
ORIGINATOR     = 

OBJECT_NAME    = SL-16 R/B
OBJECT_ID      = 1987-027B
CENTER_NAME    = EARTH
REF_FRAME      = TEME
TIME_SYSTEM    = UTC
MEAN_ELEMENT_THEORY = SGP/SGP4

EPOCH          = 2026-03-01T22:16:18.469056
MEAN_MOTION    = 14.17166803
ECCENTRICITY   = .00037927
INCLINATION    = 71.0021
RA_OF_ASC_NODE = 292.8520
ARG_OF_PERICENTER = 158.9432
MEAN_ANOMALY   = 201.1849

EPHEMERIS_TYPE = 0
CLASSIFICATION_TYPE = U
NORAD_CAT_ID   = 17590
ELEMENT_SET_NO = 999
REV_AT_EPOCH   = 1424
BSTAR          = -.61997351E-4
MEAN_MOTION_DOT = -.173E-5
MEAN_MOTION_DDOT = 0

CCSDS_OMM_VERS = 2.0
CREATION_DATE  = 
ORIGINATOR     = 

OBJECT_NAME    = SL-14 R/B
OBJECT_ID      = 1987-038B
CENTER_NAME    = EARTH
REF_FRAME      = TEME
TIME_SYSTEM    = UTC
MEAN_ELEMENT_THEORY = SGP/SGP4

EPOCH          = 2026-03-01T22:53:45.347712
MEAN_MOTION    = 14.85361067
ECCENTRICITY   = .00190062
INCLINATION    = 82.5017
RA_OF_ASC_NODE = 304.0952
ARG_OF_PERICENTER = 185.7294
MEAN_ANOMALY   = 174.3708

EPHEMERIS_TYPE = 0
CLASSIFICATION_TYPE = U
NORAD_CAT_ID   = 17912
ELEMENT_SET_NO = 999
REV_AT_EPOCH   = 7808
BSTAR          = .55510839E-4
MEAN_MOTION_DOT = .503E-5
MEAN_MOTION_DDOT = 0

CCSDS_OMM_VERS = 2.0
CREATION_DATE  = 
ORIGINATOR     = 

OBJECT_NAME    = COSMOS 1844
OBJECT_ID      = 1987-041A
CENTER_NAME    = EARTH
REF_FRAME      = TEME
TIME_SYSTEM    = UTC
MEAN_ELEMENT_THEORY = SGP/SGP4

EPOCH          = 2026-03-01T23:24:21.559392
MEAN_MOTION    = 14.14553217
ECCENTRICITY   = .00296004
INCLINATION    = 70.8992
RA_OF_ASC_NODE = 50.4468
ARG_OF_PERICENTER = 29.5979
MEAN_ANOMALY   = 330.6811

EPHEMERIS_TYPE = 0
CLASSIFICATION_TYPE = U
NORAD_CAT_ID   = 17973
ELEMENT_SET_NO = 999
REV_AT_EPOCH   = 249
BSTAR          = -.1277829E-5
MEAN_MOTION_DOT = -.51E-6
MEAN_MOTION_DDOT = 0

CCSDS_OMM_VERS = 2.0
CREATION_DATE  = 
ORIGINATOR     = 

OBJECT_NAME    = SL-14 R/B
OBJECT_ID      = 1987-055B
CENTER_NAME    = EARTH
REF_FRAME      = TEME
TIME_SYSTEM    = UTC
MEAN_ELEMENT_THEORY = SGP/SGP4

EPOCH          = 2026-03-01T20:45:31.738752
MEAN_MOTION    = 14.85617906
ECCENTRICITY   = .00217717
INCLINATION    = 82.5026
RA_OF_ASC_NODE = 356.4036
ARG_OF_PERICENTER = 42.7271
MEAN_ANOMALY   = 317.5633

EPHEMERIS_TYPE = 0
CLASSIFICATION_TYPE = U
NORAD_CAT_ID   = 18153
ELEMENT_SET_NO = 999
REV_AT_EPOCH   = 6877
BSTAR          = .73059851E-4
MEAN_MOTION_DOT = .659E-5
MEAN_MOTION_DDOT = 0

CCSDS_OMM_VERS = 2.0
CREATION_DATE  = 
ORIGINATOR     = 

OBJECT_NAME    = COSMOS 1867
OBJECT_ID      = 1987-060A
CENTER_NAME    = EARTH
REF_FRAME      = TEME
TIME_SYSTEM    = UTC
MEAN_ELEMENT_THEORY = SGP/SGP4

EPOCH          = 2026-03-01T23:11:09.423456
MEAN_MOTION    = 14.31501520
ECCENTRICITY   = .0014385
INCLINATION    = 65.0120
RA_OF_ASC_NODE = 328.3347
ARG_OF_PERICENTER = 278.1681
MEAN_ANOMALY   = 81.7771

EPHEMERIS_TYPE = 0
CLASSIFICATION_TYPE = U
NORAD_CAT_ID   = 18187
ELEMENT_SET_NO = 999
REV_AT_EPOCH   = 1883
BSTAR          = .2831965E-4
MEAN_MOTION_DOT = -.25E-6
MEAN_MOTION_DDOT = 0

CCSDS_OMM_VERS = 2.0
CREATION_DATE  = 
ORIGINATOR     = 

OBJECT_NAME    = SL-14 R/B
OBJECT_ID      = 1988-001B
CENTER_NAME    = EARTH
REF_FRAME      = TEME
TIME_SYSTEM    = UTC
MEAN_ELEMENT_THEORY = SGP/SGP4

EPOCH          = 2026-03-01T20:37:57.715392
MEAN_MOTION    = 14.85516071
ECCENTRICITY   = .00165908
INCLINATION    = 82.5139
RA_OF_ASC_NODE = 202.7230
ARG_OF_PERICENTER = 263.7861
MEAN_ANOMALY   = 96.1466

EPHEMERIS_TYPE = 0
CLASSIFICATION_TYPE = U
NORAD_CAT_ID   = 18749
ELEMENT_SET_NO = 999
REV_AT_EPOCH   = 4086
BSTAR          = .75308023E-4
MEAN_MOTION_DOT = .675E-5
MEAN_MOTION_DDOT = 0

